STARLINK-5688           
1 55479U 23015AG  26068.00548711  .00000172  00000+0  27848-4 0  9991
2 55479  43.0057 317.3377 0001566 265.3428  94.7236 15.02536651170799
ION SCV-014             
1 62630U 25009X   26068.71776957  .00001812  00000+0  13229-3 0  9995
2 62630  97.4923 144.8636 0006450 112.6479 247.5430 15.04884649 63025
